$$SOE
2459580.500000000, A.D. 2022-Jan-01 00:00:00.0000, 3.600365070317956E+08, -3.629054398404320E+08, -3.296558947211890E+07,
2459587.500000000, A.D. 2022-Jan-08 00:00:00.0000, 3.654743012750748E+08, -3.553836882286686E+08, -3.289207895140886E+07,
2459594.500000000, A.D. 2022-Jan-15 00:00:00.0000, 3.707792998510785E+08, -3.477324138686477E+08, -3.280656858084331E+07,
2459601.500000000, A.D. 2022-Jan-22 00:00:00.0000, 3.759484234057778E+08, -3.399533176475701E+08, -3.270898731224991E+07,
2459608.500000000, A.D. 2022-Jan-29 00:00:00.0000, 3.809785802761675E+08, -3.320481657971329E+08, -3.259926637930401E+07,
2459615.500000000, A.D. 2022-Feb-05 00:00:00.0000, 3.858666650308405E+08, -3.240187926102666E+08, -3.247733927657315E+07,
2459622.500000000, A.D. 2022-Feb-12 00:00:00.0000, 3.906095592675808E+08, -3.158671042750078E+08, -3.234314202984689E+07,
2459629.500000000, A.D. 2022-Feb-19 00:00:00.0000, 3.952041333483977E+08, -3.075950814552690E+08, -3.219661344294335E+07,
2459636.500000000, A.D. 2022-Feb-26 00:00:00.0000, 3.996472477660559E+08, -2.992047813405862E+08, -3.203769526018053E+07,
2459643.500000000, A.D. 2022-Mar-05 00:00:00.0000, 4.039357543067133E+08, -2.906983397804678E+08, -3.186633230997555E+07,
2459650.500000000, A.D. 2022-Mar-12 00:00:00.0000, 4.080664972359719E+08, -2.820779735673475E+08, -3.168247265576333E+07,
2459657.500000000, A.D. 2022-Mar-19 00:00:00.0000, 4.120363145850996E+08, -2.733459828380384E+08, -3.148606775894287E+07,
2459664.500000000, A.D. 2022-Mar-26 00:00:00.0000, 4.158420395656226E+08, -2.645047535972332E+08, -3.127707265685858E+07,
2459671.500000000, A.D. 2022-Apr-02 00:00:00.0000, 4.194805021857660E+08, -2.555567604159693E+08, -3.105544616703121E+07,
2459678.500000000, A.D. 2022-Apr-09 00:00:00.0000, 4.229485313465127E+08, -2.465045692963960E+08, -3.082115114256562E+07,
2459685.500000000, A.D. 2022-Apr-16 00:00:00.0000, 4.262429577810702E+08, -2.373508400442081E+08, -3.057415475835095E+07,
2459692.500000000, A.D. 2022-Apr-23 00:00:00.0000, 4.293606165769277E+08, -2.280983270604776E+08, -3.031442862333547E+07,
2459699.500000000, A.D. 2022-Apr-30 00:00:00.0000, 4.322983474179388E+08, -2.187498807947920E+08, -3.004194873108104E+07,
2459706.500000000, A.D. 2022-May-07 00:00:00.0000, 4.350529956151437E+08, -2.093084518283951E+08, -2.975669569097765E+07,
2459713.500000000, A.D. 2022-May-14 00:00:00.0000, 4.376214153222821E+08, -1.997770945428415E+08, -2.945865511936267E+07,
2459720.500000000, A.D. 2022-May-21 00:00:00.0000, 4.400004729124655E+08, -1.901589696093577E+08, -2.914781794227703E+07,
2459727.500000000, A.D. 2022-May-28 00:00:00.0000, 4.421870500442801E+08, -1.804573462514304E+08, -2.882418064426253E+07,
2459734.500000000, A.D. 2022-Jun-04 00:00:00.0000, 4.441780467006608E+08, -1.706756045861260E+08, -2.848774551406117E+07,
2459741.500000000, A.D. 2022-Jun-11 00:00:00.0000, 4.459703843510810E+08, -1.608172380331038E+08, -2.813852090010909E+07,
2459748.500000000, A.D. 2022-Jun-18 00:00:00.0000, 4.475610092820666E+08, -1.508858557676714E+08, -2.777652147806271E+07,
2459755.500000000, A.D. 2022-Jun-25 00:00:00.0000, 4.489468961328165E+08, -1.408851852397915E+08, -2.740176853556288E+07,
2459762.500000000, A.D. 2022-Jul-02 00:00:00.0000, 4.501250517779381E+08, -1.308190748133169E+08, -2.701429029171863E+07,
2459769.500000000, A.D. 2022-Jul-09 00:00:00.0000, 4.510925199551877E+08, -1.206914963365754E+08, -2.661412227239241E+07,
2459776.500000000, A.D. 2022-Jul-16 00:00:00.0000, 4.518463865908324E+08, -1.105065465485696E+08, -2.620130764732686E+07,
2459783.500000000, A.D. 2022-Jul-23 00:00:00.0000, 4.523837836331683E+08, -1.002684472303820E+08, -2.577589732062602E+07,
2459790.500000000, A.D. 2022-Jul-30 00:00:00.0000, 4.527018914854063E+08, -8.998154744353314E+07, -2.533795005588746E+07,
2459797.500000000, A.D. 2022-Aug-06 00:00:00.0000, 4.527979436405486E+08, -7.965032719256465E+07, -2.488753291246178E+07,
2459804.500000000, A.D. 2022-Aug-13 00:00:00.0000, 4.526692326990910E+08, -6.927939974043345E+07, -2.442472169142215E+07,
2459811.500000000, A.D. 2022-Aug-20 00:00:00.0000, 4.523131162049572E+08, -5.887351306261727E+07, -2.394960128759127E+07,
2459818.500000000, A.D. 2022-Aug-27 00:00:00.0000, 4.517270223718602E+08, -4.843755114848860E+07, -2.346226601238168E+07,
2459825.500000000, A.D. 2022-Sep-03 00:00:00.0000, 4.509084559509372E+08, -3.797653524163383E+07, -2.296281991831224E+07,
2459832.500000000, A.D. 2022-Sep-10 00:00:00.0000, 4.498550043314835E+08, -2.749562497540782E+07, -2.245137713054193E+07,
2459839.500000000, A.D. 2022-Sep-17 00:00:00.0000, 4.485643439046344E+08, -1.700011938472227E+07, -2.192806218725158E+07,
2459846.500000000, A.D. 2022-Sep-24 00:00:00.0000, 4.470342467494423E+08, -6.495457823330893E+06, -2.139301039753807E+07,
2459853.500000000, A.D. 2022-Oct-01 00:00:00.0000, 4.452625878783309E+08, 4.012779213476611E+06, -2.084636823963251E+07,
2459860.500000000, A.D. 2022-Oct-08 00:00:00.0000, 4.432473534433526E+08, 1.451886990672084E+07, -2.028829379307038E+07,
2459867.500000000, A.D. 2022-Oct-15 00:00:00.0000, 4.409866489645339E+08, 2.501695279798315E+07, -1.971895702013038E+07,
2459874.500000000, A.D. 2022-Oct-22 00:00:00.0000, 4.384787053940656E+08, 3.550102868325637E+07, -1.913853983288994E+07,
2459881.500000000, A.D. 2022-Oct-29 00:00:00.0000, 4.357218855071455E+08, 4.596496014781480E+07, -1.854723638598541E+07,
2459888.500000000, A.D. 2022-Nov-05 00:00:00.0000, 4.327146927061611E+08, 5.640247150914629E+07, -1.794525356242533E+07,
2459895.500000000, A.D. 2022-Nov-12 00:00:00.0000, 4.294557802590871E+08, 6.680715046269960E+07, -1.733281136715449E+07,
2459902.500000000, A.D. 2022-Nov-19 00:00:00.0000, 4.259439602369907E+08, 7.717245050375088E+07, -1.671014323866503E+07,
2459909.500000000, A.D. 2022-Nov-26 00:00:00.0000, 4.221782123941706E+08, 8.749169375525184E+07, -1.607749633329802E+07,
2459916.500000000, A.D. 2022-Dec-03 00:00:00.0000, 4.181576931349862E+08, 9.775807421733752E+07, -1.543513179631663E+07,
2459923.500000000, A.D. 2022-Dec-10 00:00:00.0000, 4.138817445877869E+08, 1.079646614843608E+08, -1.478332502010683E+07,
2459930.500000000, A.D. 2022-Dec-17 00:00:00.0000, 4.093499037825645E+08, 1.181044049314073E+08, -1.412236589134617E+07,
2459937.500000000, A.D. 2022-Dec-24 00:00:00.0000, 4.045619120108604E+08, 1.281701383307268E+08, -1.345255903995513E+07,
2459944.500000000, A.D. 2022-Dec-31 00:00:00.0000, 3.995177246915469E+08, 1.381545850301979E+08, -1.277422411119583E+07,
2459951.500000000, A.D. 2023-Jan-07 00:00:00.0000, 3.942175218259398E+08, 1.480503646788223E+08, -1.208769599075422E+07,
2459958.500000000, A.D. 2023-Jan-14 00:00:00.0000, 3.886617170319214E+08, 1.578500020194797E+08, -1.139332475859850E+07,
2459965.500000000, A.D. 2023-Jan-21 00:00:00.0000, 3.828509644712388E+08, 1.675459345990596E+08, -1.069147556854840E+07,
2459972.500000000, A.D. 2023-Jan-28 00:00:00.0000, 3.767861672939847E+08, 1.771305192164820E+08, -9.982528803163461E+06,
2459979.500000000, A.D. 2023-Feb-04 00:00:00.0000, 3.704684873398625E+08, 1.865960401484239E+08, -9.266880234390199E+06,
2459986.500000000, A.D. 2023-Feb-11 00:00:00.0000, 3.638993542458900E+08, 1.959347189688700E+08, -8.544941037929937E+06,
2459993.500000000, A.D. 2023-Feb-18 00:00:00.0000, 3.570804738391763E+08, 2.051387251448863E+08, -7.817137719678208E+06,
2460000.500000000, A.D. 2023-Feb-25 00:00:00.0000, 3.500138360154555E+08, 2.142001872485847E+08, -7.083911988496959E+06,
2460007.500000000, A.D. 2023-Mar-04 00:00:00.0000, 3.427017221408706E+08, 2.231112048030907E+08, -6.345720580112502E+06,
2460014.500000000, A.D. 2023-Mar-11 00:00:00.0000, 3.351467119407734E+08, 2.318638607589058E+08, -5.603035031717956E+06,
2460021.500000000, A.D. 2023-Mar-18 00:00:00.0000, 3.273516898589092E+08, 2.404502345421261E+08, -4.856341412763372E+06,
2460028.500000000, A.D. 2023-Mar-25 00:00:00.0000, 3.193198510274448E+08, 2.488624156113338E+08, -4.106140031805471E+06,
2460035.500000000, A.D. 2023-Apr-01 00:00:00.0000, 3.110547072092962E+08, 2.570925178919901E+08, -3.352945123998404E+06,
2460042.500000000, A.D. 2023-Apr-08 00:00:00.0000, 3.025600920309288E+08, 2.651326962786809E+08, -2.597284360890105E+06,
2460049.500000000, A.D. 2023-Apr-15 00:00:00.0000, 2.938401630981835E+08, 2.729751640594400E+08, -1.839698056652829E+06,
2460056.500000000, A.D. 2023-Apr-22 00:00:00.0000, 2.848994027401654E+08, 2.806122081687710E+08, -1.080738484565884E+06,
2460063.500000000, A.D. 2023-Apr-29 00:00:00.0000, 2.757426200562801E+08, 2.880362044695010E+08, -3.209693701031655E+05,
2460070.500000000, A.D. 2023-May-06 00:00:00.0000, 2.663749524441291E+08, 2.952396347825995E+08, 4.390347464570552E+05,
2460077.500000000, A.D. 2023-May-13 00:00:00.0000, 2.568018655730213E+08, 3.022151047046429E+08, 1.198689294232294E+06,
2460084.500000000, A.D. 2023-May-20 00:00:00.0000, 2.470291519847178E+08, 3.089553616488121E+08, 1.957400540261805E+06,
2460091.500000000, A.D. 2023-May-27 00:00:00.0000, 2.370629284681057E+08, 3.154533130001212E+08, 2.714566520676479E+06,
2460098.500000000, A.D. 2023-Jun-03 00:00:00.0000, 2.269096322247952E+08, 3.217020443245633E+08, 3.469578029210895E+06,
2460105.500000000, A.D. 2023-Jun-10 00:00:00.0000, 2.165760158157927E+08, 3.276948375263239E+08, 4.221819657009706E+06,
2460112.500000000, A.D. 2023-Jun-17 00:00:00.0000, 2.060691409524195E+08, 3.334251887959337E+08, 4.970670867342174E+06,
2460119.500000000, A.D. 2023-Jun-24 00:00:00.0000, 1.953963714344475E+08, 3.388868263042731E+08, 5.715507076553583E+06,
2460126.500000000, A.D. 2023-Jul-01 00:00:00.0000, 1.845653654822170E+08, 3.440737283665678E+08, 6.455700781151041E+06,
2460133.500000000, A.D. 2023-Jul-08 00:00:00.0000, 1.735840657919340E+08, 3.489801427879811E+08, 7.190622946400493E+06,
2460140.500000000, A.D. 2023-Jul-15 00:00:00.0000, 1.624606860454519E+08, 3.536006044481821E+08, 7.919644536982998E+06,
2460147.500000000, A.D. 2023-Jul-22 00:00:00.0000, 1.512036974176446E+08, 3.579299499858881E+08, 8.642137776652217E+06,
$$EOE